sat_config_name,tle_name,norad_id,horizons_id,epoch_tle,t_obs,delta_t_min,incl_deg,raan_deg,ecc,argp_deg,M_deg,mean_motion_rev_per_day,x_sgp4,y_sgp4,z_sgp4,vx_sgp4,vy_sgp4,vz_sgp4,x_true,y_true,z_true,vx_true,vy_true,vz_true,err_x,err_y,err_z,err_vx,err_vy,err_vz,err_norm,horizons_ok,line1,line2
CHANDRA,CXO,25867,-151,2025-11-29T09:28:09.054336+00:00,2025-11-29T19:18:09.054336+00:00,590.0,52.7584,123.0489,0.8164697,310.7158,0.2585,0.37803381,-36310.88010086875,-46955.933196769285,73690.88897157223,0.10779070829846699,-1.5749161184348583,0.9997061186362792,-36293.19379992695,-46946.609164711874,73680.49235301334,0.10729146161080631,-1.575389413479209,1.000533871520782,-17.686300941801164,-9.324032057411387,10.39661855889426,0.0004992466876606733,0.0004732950443506745,-0.0008277528845028748,22.535139055944086,True,1 25867U 99040B   25333.39454924  .00000722  00000+0  00000+0 0  9995,2 25867  52.7584 123.0489 8164697 310.7158   0.2585  0.37803381 16565
CHANDRA,CXO,25867,-151,2025-11-29T09:28:09.054336+00:00,2025-11-29T19:23:09.054336+00:00,595.0,52.7584,123.0489,0.8164697,310.7158,0.2585,0.37803381,-36277.82875648832,-47427.56703934002,73989.47186905897,0.11287674365774061,-1.568299221221334,0.9893533389406736,-36260.24175019292,-47418.23282214154,73979.0966241291,0.11237589249345394,-1.5687728998233776,0.9901789485893525,-17.58700629539817,-9.334217198484112,10.375244929862674,0.0005008511642866781,0.00047367860204361456,-0.0008256096486789488,22.451639327619098,True,1 25867U 99040B   25333.39454924  .00000722  00000+0  00000+0 0  9995,2 25867  52.7584 123.0489 8164697 310.7158   0.2585  0.37803381 16565
CHANDRA,CXO,25867,-151,2025-11-29T09:28:09.054336+00:00,2025-11-29T19:28:09.054336+00:00,600.0,52.7584,123.0489,0.8164697,310.7158,0.2585,0.37803381,-36243.26290654412,-47897.21910969744,74284.96328215167,0.11788589424695059,-1.5617111955259837,0.9791064329052802,-36225.77595245397,-47887.87579858163,74274.61031688345,0.11738343767530314,-1.5621852544454937,0.9799299280932886,-17.486954090149084,-9.343311115815595,10.352965268219123,0.0005024565716474499,0.0004740589195100231,-0.000823495188008394,22.36682623446734,True,1 25867U 99040B   25333.39454924  .00000722  00000+0  00000+0 0  9995,2 25867  52.7584 123.0489 8164697 310.7158   0.2585  0.37803381 16565
CHANDRA,CXO,25867,-151,2025-11-29T09:28:09.054336+00:00,2025-11-29T19:33:09.054336+00:00,605.0,52.7584,123.0489,0.8164697,310.7158,0.2585,0.37803381,-36207.20536667837,-48364.89804138316,74577.39467211216,0.12281988822526281,-1.5551517940407487,0.9689633064248856,-36189.81920239284,-48355.54684331815,74567.06496521755,0.12231582663594547,-1.5556262283589404,0.9697847122301045,-17.38616428552632,-9.351198065007338,10.329706894612173,0.000504061589317345,0.0004744343181917188,-0.0008214058052189444,22.280629666661266,True,1 25867U 99040B   25333.39454924  .00000722  00000+0  00000+0 0  9995,2 25867  52.7584 123.0489 8164697 310.7158   0.2585  0.37803381 16565
CHANDRA,CXO,25867,-151,2025-11-29T09:28:09.054336+00:00,2025-11-29T19:38:09.054336+00:00,610.0,52.7584,123.0489,0.8164697,310.7158,0.2585,0.37803381,-36169.67844180375,-48830.61239326604,74866.79688028732,0.127680400665899,-1.5486207670422754,0.9589219226047846,-36152.39380415028,-48821.25437969668,74856.49132548677,0.12717473309908875,-1.5490955736853658,0.9597412659144675,-17.2846376534726,-9.35801356936281,10.305554800550453,0.0005056675668102528,0.00047480664309040854,-0.0008193433096829184,22.193142556280076,True,1 25867U 99040B   25333.39454924  .00000722  00000+0  00000+0 0  9995,2 25867  52.7584 123.0489 8164697 310.7158   0.2585  0.37803381 16565
CHANDRA,CXO,25867,-151,2025-11-29T09:28:09.054336+00:00,2025-11-29T19:43:09.054336+00:00,615.0,52.7584,123.0489,0.8164697,310.7158,0.2585,0.37803381,-36130.70394175423,-49294.37064885858,75153.20014497987,0.13246905559302669,-1.5421178627692065,0.9489802997670768,-36113.52154741181,-49285.0070058485,75142.91970689587,0.1319617823599946,-1.54259303699998,0.9497976039044439,-17.18239434242423,-9.363643010081432,10.28043808399525,0.0005072732330320961,0.00047517423077358956,-0.0008173041373671364,22.10429580325234,True,1 25867U 99040B   25333.39454924  .00000722  00000+0  00000+0 0  9995,2 25867  52.7584 123.0489 8164697 310.7158   0.2585  0.37803381 16565
CHANDRA,CXO,25867,-151,2025-11-29T09:28:09.054336+00:00,2025-11-29T19:48:09.054336+00:00,620.0,52.7584,123.0489,0.8164697,310.7158,0.2585,0.37803381,-36090.303196295485,-49756.18121577407,75436.63411773274,0.1371874279264418,-1.5356428277710361,0.9391365095407156,-36073.223762509886,-49746.81299519144,75426.37967768883,0.13667854802436918,-1.5361183666770655,0.9399517996499218,-17.079433785598667,-9.368220582633512,10.25444004390738,0.0005088799020726287,0.0004755389060293602,-0.0008152901092062237,22.01418079183549,True,1 25867U 99040B   25333.39454924  .00000722  00000+0  00000+0 0  9995,2 25867  52.7584 123.0489 8164697 310.7158   0.2585  0.37803381 16565
CHANDRA,CXO,25867,-151,2025-11-29T09:28:09.054336+00:00,2025-11-29T19:53:09.054336+00:00,625.0,52.7584,123.0489,0.8164697,310.7158,0.2585,0.37803381,-36048.49706960223,-50216.052425257214,75717.12787905325,0.1418370453364835,-1.5291954072307254,0.9293886750312031,-36031.52129888726,-50206.68073172987,75706.90035061016,0.14132655838091973,-1.5296713071033712,0.9302019740971308,-16.975770714969258,-9.37169352734054,10.227528443094343,0.0005104869555637714,0.0004758998726457353,-0.0008132990659276418,21.922768278479527,True,1 25867U 99040B   25333.39454924  .00000722  00000+0  00000+0 0  9995,2 25867  52.7584 123.0489 8164697 310.7158   0.2585  0.37803381 16565
CHANDRA,CXO,25867,-151,2025-11-29T09:28:09.054336+00:00,2025-11-29T19:58:09.054336+00:00,630.0,52.7584,123.0489,0.8164697,310.7158,0.2585,0.37803381,-36005.30597414869,-50673.99253183916,75994.70995359842,0.14641939001633972,-1.522775345262795,0.919734969066061,-35988.43455385632,-50664.61852129387,75984.51028068802,0.14590729619581203,-1.5232516016189583,0.9205462980092387,-16.871420292365656,-9.374010545288911,10.199672910399386,0.0005120938205276926,0.0004762563561633293,-0.0008113289431777027,21.830030322103777,True,1 25867U 99040B   25333.39454924  .00000722  00000+0  00000+0 0  9995,2 25867  52.7584 123.0489 8164697 310.7158   0.2585  0.37803381 16565
CHANDRA,CXO,25867,-151,2025-11-29T09:28:09.054336+00:00,2025-11-29T20:03:09.054336+00:00,635.0,52.7584,123.0489,0.8164697,310.7158,0.2585,0.37803381,-35960.749884130855,-51130.00971304046,76269.40832484527,0.1509359003732564,-1.5163823851888398,0.9101736125124427,-35943.983504076015,-51120.63440921573,76259.23737061507,0.15042219861401637,-1.5168589953433171,0.9109829940866295,-16.76638005483983,-9.375303824730508,10.170954230197822,0.0005137017592400372,0.00047661015447730826,-0.0008093815741868626,21.736056033745317,True,1 25867U 99040B   25333.39454924  .00000722  00000+0  00000+0 0  9995,2 25867  52.7584 123.0489 8164697 310.7158   0.2585  0.37803381 16565
CHANDRA,CXO,25867,-151,2025-11-29T09:28:09.054336+00:00,2025-11-29T20:08:09.054336+00:00,640.0,52.7584,123.0489,0.8164697,310.7158,0.2585,0.37803381,-35914.84834834679,-51584.11206918663,76541.25044926604,0.15538797264575832,-1.5100162697918402,0.9007028726634269,-35898.18767758805,-51574.73660884223,76531.10914424142,0.15487266304985897,-1.5104932294194462,0.9015103263285991,-16.660670758741617,-9.375460344403109,10.141305024619214,0.0005153095958993492,0.0004769596276059662,-0.0008074536651722086,21.640778045232803,True,1 25867U 99040B   25333.39454924  .00000722  00000+0  00000+0 0  9995,2 25867  52.7584 123.0489 8164697 310.7158   0.2585  0.37803381 16565
CHANDRA,CXO,25867,-151,2025-11-29T09:28:09.054336+00:00,2025-11-29T20:13:09.054336+00:00,645.0,52.7584,123.0489,0.8164697,310.7158,0.2585,0.37803381,-35867.620502631646,-52036.30762327699,76810.26327002962,0.1597769624485049,-1.5036767415509253,0.8913210616896817,-35851.06621391753,-52026.933012096895,76800.15246547556,0.159260043886253,-1.5041540481083704,0.8921266087474623,-16.554288714112772,-9.37461118009378,10.11080455406045,0.000516918562251889,0.00047730655744504524,-0.0008055470577805757,21.54428412221094,True,1 25867U 99040B   25333.39454924  .00000722  00000+0  00000+0 0  9995,2 25867  52.7584 123.0489 8164697 310.7158   0.2585  0.37803381 16565
CHANDRA,CXO,25867,-151,2025-11-29T09:28:09.054336+00:00,2025-11-29T20:18:09.054336+00:00,650.0,52.7584,123.0489,0.8164697,310.7158,0.2585,0.37803381,-35819.0850818213,-52486.604320931736,77076.47323024645,0.16410418624986037,-1.4973635428578962,0.882026535153512,-35802.63782690668,-52477.231676745236,77066.39384331039,0.16358565872943223,-1.4978411921741428,0.882830193714343,-16.447254914623045,-9.37264418650011,10.079386936064111,0.0005185275204281359,0.0004776493162466089,-0.0008036585608309776,21.446507740893995,True,1 25867U 99040B   25333.39454924  .00000722  00000+0  00000+0 0  9995,2 25867  52.7584 123.0489 8164697 310.7158   0.2585  0.37803381 16565
CHANDRA,CXO,25867,-151,2025-11-29T09:28:09.054336+00:00,2025-11-29T20:23:09.054336+00:00,655.0,52.7584,123.0489,0.8164697,310.7158,0.2585,0.37803381,-35769.260431294235,-52935.01003039509,77339.90628577798,0.16837092278476118,-1.491076416216804,0.8728176905822514,-35752.920866813794,-52925.64034100554,77329.85915582432,0.16785078511183077,-1.4915544058882495,0.8736194806052308,-16.33956448044046,-9.369689389546693,10.047129953658441,0.0005201376729304097,0.0004779896714455223,-0.0008017900229793096,21.347535384038036,True,1 25867U 99040B   25333.39454924  .00000722  00000+0  00000+0 0  9995,2 25867  52.7584 123.0489 8164697 310.7158   0.2585  0.37803381 16565
